NORAD_CAT_ID,OBJECT_NAME,OBJECT_TYPE,EPOCH,MEAN_MOTION,ECCENTRICITY,INCLINATION,RA_OF_ASC_NODE,ARG_OF_PERICENTER,MEAN_ANOMALY,BSTAR,MEAN_MOTION_DOT,MEAN_MOTION_DDOT,TLE_LINE0,TLE_LINE1,TLE_LINE2,SEMIMAJOR_AXIS,PERIOD,APOGEE,PERIGEE,DECAYED
54768.0,TBA - TO BE ASSIGNED,UNKNOWN,2022-12-27 18:00:00,15.77897591,0.0001395,53.2177,256.9972,41.8525,238.7083,-0.007812,-0.01196529,0.0,0 TBA - TO BE ASSIGNED,1 54768U 22175L   22361.75001157 -.01196529  00000-0 -78120-2 0  9992,2 54768  53.2177 256.9972 0001395  41.8525 238.7083 15.77897591  1304,6714.535,91.261,337.337,335.464,
54768.0,TBA - TO BE ASSIGNED,UNKNOWN,2022-12-27 22:00:00,15.7745535,0.0001628,53.2173,256.1684,34.6988,113.014,-0.0078828,-0.01185064,0.0,0 TBA - TO BE ASSIGNED,1 54768U 22175L   22361.91667824 -.01185064  00000-0 -78828-2 0  9996,2 54768  53.2173 256.1684 0001628  34.6988 113.0140 15.77455350  1306,6715.79,91.286,338.749,336.5619999999999,
54768.0,STARLINK-5444,PAYLOAD,2022-12-28 14:00:01,15.75724358,0.0004587,53.2174,252.8514,276.635,57.0669,-0.0085869,-0.01195559,0.0,0 STARLINK-5444,1 54768U 22175L   22362.58334491 -.01195559  00000-0 -85869-2 0  9994,2 54768  53.2174 252.8514 0004587 276.6350  57.0669 15.75724358  1308,6720.708000000001,91.387,345.656,339.49,0.0
54768.0,STARLINK-5444,PAYLOAD,2022-12-28 18:00:00,15.75294239,0.0005692,53.2176,252.0239,272.9278,286.6167,-0.0087598,-0.01197358,0.0,0 STARLINK-5444,1 54768U 22175L   22362.75001157 -.01197358  00000-0 -87598-2 0  9993,2 54768  53.2176 252.0239 0005692 272.9278 286.6167 15.75294239  1451,6721.931,91.411,347.622,339.97,0.0
54768.0,STARLINK-5444,PAYLOAD,2022-12-28 22:00:00,15.74867535,0.0001530999999999,53.2172,251.1983,39.9893,25.1363,-0.0090353,-0.01207572,0.0,0 STARLINK-5444,1 54768U 22175L   22362.91667824 -.01207572  00000-0 -90353-2 0  9993,2 54768  53.2172 251.1983 0001531  39.9893  25.1363 15.74867535  1307,6723.145,91.436,346.039,343.981,0.0
54768.0,STARLINK-5444,PAYLOAD,2022-12-29 00:00:00,15.74636961,0.0001675999999999,53.2174,250.7852,43.3553,134.4701,-0.0089541,-0.01187316,0.0,0 STARLINK-5444,1 54768U 22175L   22363.00001157 -.01187316  00000-0 -89541-2 0  9995,2 54768  53.2174 250.7852 0001676  43.3553 134.4701 15.74636961  1498,6723.801,91.45,346.793,344.54,0.0
54768.0,STARLINK-5444,PAYLOAD,2022-12-29 08:00:01,15.73643361,0.0001886999999999,53.2172,249.1326,34.2941,233.6689,-0.0041552,-0.00557358,0.0,0 STARLINK-5444,1 54768U 22175L   22363.33334491 -.00557358  00000-0 -41552-2 0  9997,2 54768  53.2172 249.1326 0001887  34.2941 233.6689 15.73643361  1542,6726.630999999999,91.507,349.766,347.227,0.0
54768.0,STARLINK-5444,PAYLOAD,2022-12-29 14:00:01,15.73210678,0.0001624,53.2173,247.8933,42.7693,202.1755,-8.7489e-05,-0.00012886,0.0,0 STARLINK-5444,1 54768U 22175L   22363.58334491 -.00012886  00000-0 -87489-4 0  9997,2 54768  53.2173 247.8933 0001624  42.7693 202.1755 15.73210678  1309,6727.865,91.533,350.82199999999995,348.63699999999994,0.0
54768.0,STARLINK-5444,PAYLOAD,2022-12-29 16:00:00,15.73201587,0.0001531999999999,53.2176,247.481,47.0642,310.1173,3.4917e-05,4.283e-05,0.0,0 STARLINK-5444,1 54768U 22175L   22363.66667824  .00004283  00000-0  34917-4 0  9993,2 54768  53.2176 247.4810 0001532  47.0642 310.1173 15.73201587  1608,6727.891,91.533,350.786,348.725,0.0
54768.0,STARLINK-5444,PAYLOAD,2022-12-30 00:00:00,15.73162841,0.0001815,53.2152,245.8384,70.3353,15.7074,0.00043325,0.00060527,0.0,0 STARLINK-5444,1 54768U 22175L   22364.00001157  .00060527  00000-0  43325-3 0  9998,2 54768  53.2152 245.8384 0001815  70.3353  15.7074 15.73162841  1654,6728.001,91.535,351.087,348.645,0.0
54768.0,STARLINK-5444,PAYLOAD,2022-12-30 14:00:01,15.73250936,0.0001554999999999,53.215,242.9495,79.0042,72.6829,0.00047792,0.00067138,0.0,0 STARLINK-5444,1 54768U 22175L   22364.58334491  .00067138  00000-0  47792-3 0  9998,2 54768  53.2150 242.9495 0001555  79.0042  72.6829 15.73250936  1300,6727.75,91.53,350.661,348.569,0.0
54768.0,STARLINK-5444,PAYLOAD,2022-12-30 16:00:00,15.73296636,0.0001520999999999,53.2154,242.5371,79.4634,184.4629,-9.1156e-05,-0.00013447,0.0,0 STARLINK-5444,1 54768U 22175L   22364.66667824 -.00013447  00000-0 -91156-4 0  9996,2 54768  53.2154 242.5371 0001521  79.4634 184.4629 15.73296636  1753,6727.62,91.528,350.5080000000001,348.461,0.0
54768.0,STARLINK-5444,PAYLOAD,2022-12-31 00:00:00,15.73158758,0.0001749,53.2173,240.8855,79.8721,273.0664,0.00051125,0.00071618,0.0,0 STARLINK-5444,1 54768U 22175L   22365.00001157  .00071618  00000-0  51125-3 0  9999,2 54768  53.2173 240.8855 0001749  79.8721 273.0664 15.73158758  1818,6728.013000000001,91.536,351.05400000000014,348.701,0.0
54768.0,STARLINK-5444,PAYLOAD,2022-12-31 08:00:01,15.73234837,0.0001189999999999,53.2153,239.239,63.1027,18.7898,-0.00012997,-0.00018846,0.0,0 STARLINK-5444,1 54768U 22175L   22365.33334491 -.00018846  00000-0 -12997-3 0  9995,2 54768  53.2153 239.2390 0001190  63.1027  18.7898 15.73234837  1868,6727.795999999999,91.531,350.461,348.86,0.0
54768.0,STARLINK-5444,PAYLOAD,2022-12-31 14:00:01,15.73200427,0.0001054999999999,53.2153,238.0008,70.8792,347.7286,6.1876e-05,8.073e-05,0.0,0 STARLINK-5444,1 54768U 22175L   22365.58334491  .00008073  00000-0  61876-4 0  9992,2 54768  53.2153 238.0008 0001055  70.8792 347.7286 15.73200427  1308,6727.894,91.533,350.469,349.0490000000001,0.0
54768.0,STARLINK-5444,PAYLOAD,2022-12-31 22:00:00,15.73196906,9.77e-05,53.2149,236.3532,53.4868,94.0571,-0.00022941,-0.00032685,0.0,0 STARLINK-5444,1 54768U 22175L   22365.91667824 -.00032685  00000-0 -22941-3 0  9995,2 54768  53.2149 236.3532 0000977  53.4868  94.0571 15.73196906  1304,6727.904,91.533,350.426,349.112,0.0
54768.0,STARLINK-5444,PAYLOAD,2023-01-01 00:00:00,15.73156963,0.0001028,53.215,235.9413,51.7089,208.075,0.00035849,0.00049898,0.0,0 STARLINK-5444,1 54768U 22175L   23001.00001157  .00049898  00000-0  35849-3 0  9997,2 54768  53.2150 235.9413 0001028  51.7089 208.0750 15.73156963  1960,6728.018,91.536,350.575,349.191,0.0
54768.0,STARLINK-5444,PAYLOAD,2023-01-01 14:00:01,15.73139879,9.93e-05,53.2149,233.0524,69.3018,256.0446,0.00071585,0.00100797,0.0,0 STARLINK-5444,1 54768U 22175L   23001.58334491  .00100797  00000-0  71585-3 0  9993,2 54768  53.2149 233.0524 0000993  69.3018 256.0446 15.73139879  1307,6728.066999999999,91.537,350.6,349.26300000000015,0.0
54768.0,STARLINK-5444,PAYLOAD,2023-01-01 16:00:00,15.73181276,0.0001060999999999,53.2151,232.6404,70.406,7.1504,0.00029258,0.00040607,0.0,0 STARLINK-5444,1 54768U 22175L   23001.66667824  .00040607  00000-0  29258-3 0  9994,2 54768  53.2151 232.6404 0001061  70.4060   7.1504 15.73181276  2072,6727.949000000001,91.534,350.527,349.1,0.0
54768.0,STARLINK-5444,PAYLOAD,2023-01-02 00:00:00,15.73180017,0.0001279,53.2152,230.993,58.4448,108.055,0.00027909,0.00038695,0.0,0 STARLINK-5444,1 54768U 22175L   23002.00001157  .00038695  00000-0  27909-3 0  9999,2 54768  53.2152 230.9930 0001279  58.4448 108.0550 15.73180017  1304,6727.9519999999975,91.534,350.67800000000005,348.957,0.0
54768.0,STARLINK-5444,PAYLOAD,2023-01-02 14:32:32,15.73210513,0.0001286,53.2152,227.9934,85.5613,274.5555,6.5591e-05,8.599e-05,0.0,0 STARLINK-5444,1 54768U 22175L   23002.60593167  .00008599  00000-0  65591-4 0  9992,2 54768  53.2152 227.9934 0001286  85.5613 274.5555 15.73210513  2228,6727.865,91.533,350.595,348.865,0.0
54768.0,STARLINK-5444,PAYLOAD,2023-01-02 20:38:27,15.73234708,0.0001091,53.215,226.7361,75.6807,284.4334,0.00028138,0.00039112,0.0,0 STARLINK-5444,1 54768U 22175L   23002.86004234  .00039112  00000-0  28138-3 0  9992,2 54768  53.2150 226.7361 0001091  75.6807 284.4334 15.73234708  4427,6727.795999999999,91.531,350.395,348.927,0.0
54768.0,STARLINK-5444,PAYLOAD,2023-01-03 05:47:20,15.73200139,0.0001238,53.2147,224.85,63.2828,296.8319,0.0002213,0.00030551,0.0,0 STARLINK-5444,1 54768U 22175L   23003.24121472  .00030551  00000-0  22130-3 0  9993,2 54768  53.2147 224.8500 0001238  63.2828 296.8319 15.73200139  2324,6727.895,91.533,350.593,348.927,0.0
54768.0,STARLINK-5444,PAYLOAD,2023-01-03 17:59:11,15.73197784,8.759999999999999e-05,53.2144,222.335,54.7146,305.3956,0.000151,0.00020622,0.0,0 STARLINK-5444,1 54768U 22175L   23003.74943815  .00020622  00000-0  15100-3 0  9998,2 54768  53.2144 222.3350 0000876  54.7146 305.3956 15.73197784  2405,6727.901,91.533,350.356,349.177,0.0
54768.0,STARLINK-5444,PAYLOAD,2023-01-04 01:36:35,15.73220377,8.690000000000001e-05,53.2141,220.7624,57.2003,302.91,0.00039009,0.0005453,0.0,0 STARLINK-5444,1 54768U 22175L   23004.06707623  .00054530  00000-0  39009-3 0  9998,2 54768  53.2141 220.7624 0000869  57.2003 302.9100 15.73220377  2454,6727.837,91.532,350.287,349.117,0.0
54768.0,STARLINK-5444,PAYLOAD,2023-01-04 07:42:30,15.73220153,9.84e-05,53.2139,219.5067,47.0505,313.0597,0.00044219,0.00061951,0.0,0 STARLINK-5444,1 54768U 22175L   23004.32118882  .00061951  00000-0  44219-3 0  9994,2 54768  53.2139 219.5067 0000984  47.0505 313.0597 15.73220153  4659,6727.8380000000025,91.532,350.365,349.041,0.0
54768.0,STARLINK-5444,PAYLOAD,2023-01-05 06:34:40,15.73289599,0.0001724,53.2132,214.7903,63.004,297.1156,0.00022869,0.0003171999999999,0.0,0 STARLINK-5444,1 54768U 22175L   23005.27407419  .00031720  00000-0  22869-3 0  9994,2 54768  53.2132 214.7903 0001724  63.0040 297.1156 15.73289599  2642,6727.64,91.528,350.665,348.345,0.0
54768.0,STARLINK-5444,PAYLOAD,2023-01-05 14:12:02,15.73295536,0.000182,53.213,213.2199,79.1521,280.9704,9.0576e-05,0.00012161,0.0,0 STARLINK-5444,1 54768U 22175L   23005.59169779  .00012161  00000-0  90576-4 0  9992,2 54768  53.2130 213.2199 0001820  79.1521 280.9704 15.73295536  2692,6727.623000000001,91.528,350.712,348.26300000000015,0.0
54768.0,STARLINK-5444,PAYLOAD,2023-01-06 13:04:15,15.73184047,0.0001349,53.2132,208.5035,49.5838,310.53,-7.8633e-05,-0.00011633,0.0,0 STARLINK-5444,1 54768U 22175L   23006.54462852 -.00011633  00000-0 -78633-4 0  9991,2 54768  53.2132 208.5035 0001349  49.5838 310.5300 15.73184047  2841,6727.941,91.534,350.713,348.898,0.0
